{"type": "FeatureCollection", "features": [{"type": "Feature", "id": "dams-1390", "properties": {"W01_001": "昭和池", "W01_002": 1435, "W01_003": "淀川", "W01_004": "曽我谷川", "W01_005": "3", "W01_006": "3", "W01_007": 27.5, "W01_008": 75.0, "W01_009": 144, "W01_010": 393, "W01_011": "8", "W01_012": "1930", "W01_013": "京都府亀岡市曾我部町", "W01_014": 2, "name": "昭和池", "edition": "2014", "kind": "dams", "sourceUrl": "https://nlftp.mlit.go.jp/ksj/gml/datalist/KsjTmplt-W01.html"}, "geometry": {"type": "Point", "coordinates": [135.52596793500004, 34.96189914400003]}}, {"type": "Feature", "id": "dams-1413", "properties": {"W01_001": "光明池本堤（元）", "W01_002": 1407, "W01_003": "大津川", "W01_004": "槇尾川", "W01_005": "3", "W01_006": "3", "W01_007": 26.0, "W01_008": 350.0, "W01_009": 387, "W01_010": 3700, "W01_011": "8", "W01_012": "1936", "W01_013": "大阪府和泉市和田町", "W01_014": 2, "name": "光明池本堤（元）", "edition": "2014", "kind": "dams", "sourceUrl": "https://nlftp.mlit.go.jp/ksj/gml/datalist/KsjTmplt-W01.html"}, "geometry": {"type": "Point", "coordinates": [135.47709623000003, 34.46564764000004]}}, {"type": "Feature", "id": "dams-1414", "properties": {"W01_001": "大野池", "W01_002": 1406, "W01_003": "大津川", "W01_004": "槇尾川", "W01_005": "3", "W01_006": "3", "W01_007": 15.7, "W01_008": 194.0, "W01_009": 67, "W01_010": 1153, "W01_011": "8", "W01_012": "1949", "W01_013": "大阪府和泉市尾井町", "W01_014": 1, "name": "大野池", "edition": "2014", "kind": "dams", "sourceUrl": "https://nlftp.mlit.go.jp/ksj/gml/datalist/KsjTmplt-W01.html"}, "geometry": {"type": "Point", "coordinates": [135.45577602000003, 34.50415962000005]}}, {"type": "Feature", "id": "dams-1415", "properties": {"W01_001": "大正池", "W01_002": 1411, "W01_003": "石津川", "W01_004": "石津川", "W01_005": "3", "W01_006": "3", "W01_007": 23.0, "W01_008": 120.0, "W01_009": 83, "W01_010": 325, "W01_011": "8", "W01_012": "1913", "W01_013": "大阪府堺市泉ヶ丘町大字富蔵", "W01_014": 1, "name": "大正池", "edition": "2014", "kind": "dams", "sourceUrl": "https://nlftp.mlit.go.jp/ksj/gml/datalist/KsjTmplt-W01.html"}, "geometry": {"type": "Point", "coordinates": [135.52813447000005, 34.45592106000004]}}, {"type": "Feature", "id": "dams-1417", "properties": {"W01_001": "寺ヶ池", "W01_002": 1420, "W01_003": "大和川", "W01_004": "石川", "W01_005": "3", "W01_006": "3", "W01_007": 15.0, "W01_008": 147.2, "W01_009": 71, "W01_010": 600, "W01_011": "4", "W01_012": "1969", "W01_013": "大阪府河内長野市木戸町", "W01_014": 1, "name": "寺ヶ池", "edition": "2014", "kind": "dams", "sourceUrl": "https://nlftp.mlit.go.jp/ksj/gml/datalist/KsjTmplt-W01.html"}, "geometry": {"type": "Point", "coordinates": [135.55940251000004, 34.46548722000006]}}, {"type": "Feature", "id": "dams-1418", "properties": {"W01_001": "狭山池（元）", "W01_002": 1426, "W01_003": "大和川", "W01_004": "西除川", "W01_005": "3", "W01_006": "3", "W01_007": 15.0, "W01_008": 1037.0, "W01_009": 396, "W01_010": 1770, "W01_011": "8", "W01_012": "616", "W01_013": "大阪府大阪狭山市大字岩室", "W01_014": 1, "name": "狭山池（元）", "edition": "2014", "kind": "dams", "sourceUrl": "https://nlftp.mlit.go.jp/ksj/gml/datalist/KsjTmplt-W01.html"}, "geometry": {"type": "Point", "coordinates": [135.55094084000007, 34.50648584000004]}}, {"type": "Feature", "id": "dams-1419", "properties": {"W01_001": "狭山池（再）", "W01_002": 1427, "W01_003": "大和川", "W01_004": "西除川", "W01_005": "3", "W01_006": "1,2", "W01_007": 18.5, "W01_008": 997.0, "W01_009": 605, "W01_010": 2800, "W01_011": "4", "W01_012": "2001", "W01_013": "大阪府大阪狭山市大字池尻", "W01_014": 1, "name": "狭山池（再）", "edition": "2014", "kind": "dams", "sourceUrl": "https://nlftp.mlit.go.jp/ksj/gml/datalist/KsjTmplt-W01.html"}, "geometry": {"type": "Point", "coordinates": [135.55094084000007, 34.50648584000004]}}, {"type": "Feature", "id": "dams-1422", "properties": {"W01_001": "安威川", "W01_002": 1466, "W01_003": "淀川", "W01_004": "安威川", "W01_005": "12", "W01_006": "1,2", "W01_007": 76.5, "W01_008": 337.5, "W01_009": 2225, "W01_010": 18000, "W01_011": "4", "W01_012": "-", "W01_013": "大阪府茨木市生保", "W01_014": 4, "name": "安威川", "edition": "2014", "kind": "dams", "sourceUrl": "https://nlftp.mlit.go.jp/ksj/gml/datalist/KsjTmplt-W01.html"}, "geometry": {"type": "Point", "coordinates": [135.56036432100007, 34.871082296000054]}}, {"type": "Feature", "id": "dams-1423", "properties": {"W01_001": "箕面川", "W01_002": 1467, "W01_003": "淀川", "W01_004": "箕面川", "W01_005": "12", "W01_006": "1,2", "W01_007": 47.0, "W01_008": 222.5, "W01_009": 600, "W01_010": 2000, "W01_011": "4", "W01_012": "1983", "W01_013": "大阪府箕面市粟生間谷2926", "W01_014": 1, "name": "箕面川", "edition": "2014", "kind": "dams", "sourceUrl": "https://nlftp.mlit.go.jp/ksj/gml/datalist/KsjTmplt-W01.html"}, "geometry": {"type": "Point", "coordinates": [135.47728379000012, 34.860298870000065]}}, {"type": "Feature", "id": "dams-1430", "properties": {"W01_001": "光明池本堤（再）", "W01_002": 1408, "W01_003": "大津川", "W01_004": "槇尾川", "W01_005": "3", "W01_006": "3", "W01_007": 26.0, "W01_008": 350.0, "W01_009": 521, "W01_010": 3696, "W01_011": "4", "W01_012": "1984", "W01_013": "大阪府和泉市和田町", "W01_014": 2, "name": "光明池本堤（再）", "edition": "2014", "kind": "dams", "sourceUrl": "https://nlftp.mlit.go.jp/ksj/gml/datalist/KsjTmplt-W01.html"}, "geometry": {"type": "Point", "coordinates": [135.47710059700012, 34.465652857000066]}}, {"type": "Feature", "id": "dams-1431", "properties": {"W01_001": "光明池副堤（元）", "W01_002": 1409, "W01_003": "大津川", "W01_004": "槇尾川", "W01_005": "3", "W01_006": "3", "W01_007": 15.0, "W01_008": 151.0, "W01_009": 50, "W01_010": 3700, "W01_011": "8", "W01_012": "1936", "W01_013": "大阪府和泉市和田町", "W01_014": 2, "name": "光明池副堤（元）", "edition": "2014", "kind": "dams", "sourceUrl": "https://nlftp.mlit.go.jp/ksj/gml/datalist/KsjTmplt-W01.html"}, "geometry": {"type": "Point", "coordinates": [135.47615784900006, 34.46109796500008]}}, {"type": "Feature", "id": "dams-1432", "properties": {"W01_001": "光明池副堤（再）", "W01_002": 1410, "W01_003": "大津川", "W01_004": "槇尾川", "W01_005": "3", "W01_006": "3", "W01_007": 18.3, "W01_008": 132.0, "W01_009": 107, "W01_010": 3696, "W01_011": "4", "W01_012": "2011", "W01_013": "大阪府和泉市和田町", "W01_014": 2, "name": "光明池副堤（再）", "edition": "2014", "kind": "dams", "sourceUrl": "https://nlftp.mlit.go.jp/ksj/gml/datalist/KsjTmplt-W01.html"}, "geometry": {"type": "Point", "coordinates": [135.4761320660001, 34.46110619700005]}}, {"type": "Feature", "id": "dams-1441", "properties": {"W01_001": "一庫", "W01_002": 1455, "W01_003": "淀川", "W01_004": "一庫大路次川", "W01_005": "7", "W01_006": "1,2,4", "W01_007": 75.0, "W01_008": 285.0, "W01_009": 441, "W01_010": 33300, "W01_011": "6", "W01_012": "1983", "W01_013": "兵庫県川西市一庫字大山", "W01_014": 1, "name": "一庫", "edition": "2014", "kind": "dams", "sourceUrl": "https://nlftp.mlit.go.jp/ksj/gml/datalist/KsjTmplt-W01.html"}, "geometry": {"type": "Point", "coordinates": [135.41163010800005, 34.90518651800005]}}, {"type": "Feature", "id": "dams-1442", "properties": {"W01_001": "青野", "W01_002": 1513, "W01_003": "武庫川", "W01_004": "青野川", "W01_005": "7", "W01_006": "1,2,4", "W01_007": 29.0, "W01_008": 286.0, "W01_009": 57, "W01_010": 15100, "W01_011": "4", "W01_012": "1987", "W01_013": "兵庫県三田市加茂", "W01_014": 1, "name": "青野", "edition": "2014", "kind": "dams", "sourceUrl": "https://nlftp.mlit.go.jp/ksj/gml/datalist/KsjTmplt-W01.html"}, "geometry": {"type": "Point", "coordinates": [135.20759395000005, 34.933662850000076]}}, {"type": "Feature", "id": "dams-1443", "properties": {"W01_001": "桜池", "W01_002": 1514, "W01_003": "武庫川", "W01_004": "有野川", "W01_005": "3", "W01_006": "3", "W01_007": 22.7, "W01_008": 101.5, "W01_009": 84, "W01_010": 335, "W01_011": "4", "W01_012": "1951", "W01_013": "兵庫県神戸市北区有野町有野", "W01_014": 1, "name": "桜池", "edition": "2014", "kind": "dams", "sourceUrl": "https://nlftp.mlit.go.jp/ksj/gml/datalist/KsjTmplt-W01.html"}, "geometry": {"type": "Point", "coordinates": [135.2057337000001, 34.801192850000064]}}, {"type": "Feature", "id": "dams-1444", "properties": {"W01_001": "丸山", "W01_002": 1515, "W01_003": "武庫川", "W01_004": "船坂川", "W01_005": "7", "W01_006": "4", "W01_007": 31.0, "W01_008": 71.0, "W01_009": 113, "W01_010": 2442, "W01_011": "5", "W01_012": "1977", "W01_013": "兵庫県西宮市山口町下山口字丸山", "W01_014": 1, "name": "丸山", "edition": "2014", "kind": "dams", "sourceUrl": "https://nlftp.mlit.go.jp/ksj/gml/datalist/KsjTmplt-W01.html"}, "geometry": {"type": "Point", "coordinates": [135.2561252690001, 34.82655052800004]}}, {"type": "Feature", "id": "dams-1445", "properties": {"W01_001": "千苅", "W01_002": 1510, "W01_003": "武庫川", "W01_004": "羽束川", "W01_005": "7", "W01_006": "4", "W01_007": 42.4, "W01_008": 106.7, "W01_009": 41, "W01_010": 11717, "W01_011": "4", "W01_012": "1919", "W01_013": "兵庫県神戸市北区道場町生野字大岩嶽", "W01_014": 1, "name": "千苅", "edition": "2014", "kind": "dams", "sourceUrl": "https://nlftp.mlit.go.jp/ksj/gml/datalist/KsjTmplt-W01.html", "serviceNote": "Sengari mainly supplies northern Kita Ward via Sengari treatment plant; emergency supply also reaches Suzurandai. Water sent via Uegahara also supports the urban area.", "serviceSource": "https://kobe-wb.jp/kobe-suidou/tyosuichi/"}, "geometry": {"type": "Point", "coordinates": [135.2700000000001, 34.87639592000005]}}, {"type": "Feature", "id": "dams-1446", "properties": {"W01_001": "川下川", "W01_002": 1511, "W01_003": "武庫川", "W01_004": "川下川", "W01_005": "12", "W01_006": "4", "W01_007": 45.0, "W01_008": 261.8, "W01_009": 730, "W01_010": 2750, "W01_011": "5", "W01_012": "1977", "W01_013": "兵庫県宝塚市玉瀬字イジリハ", "W01_014": 1, "name": "川下川", "edition": "2014", "kind": "dams", "sourceUrl": "https://nlftp.mlit.go.jp/ksj/gml/datalist/KsjTmplt-W01.html"}, "geometry": {"type": "Point", "coordinates": [135.29197718300009, 34.865102139000044]}}, {"type": "Feature", "id": "dams-1447", "properties": {"W01_001": "深谷", "W01_002": 1509, "W01_003": "武庫川", "W01_004": "逆瀬川", "W01_005": "3", "W01_006": "4", "W01_007": 41.0, "W01_008": 497.0, "W01_009": 578, "W01_010": 1095, "W01_011": "5", "W01_012": "1971", "W01_013": "兵庫県宝塚市蔵人字深谷", "W01_014": 1, "name": "深谷", "edition": "2014", "kind": "dams", "sourceUrl": "https://nlftp.mlit.go.jp/ksj/gml/datalist/KsjTmplt-W01.html"}, "geometry": {"type": "Point", "coordinates": [135.33088125300003, 34.785296204000076]}}, {"type": "Feature", "id": "dams-1448", "properties": {"W01_001": "北山第1", "W01_002": 1516, "W01_003": "夙川", "W01_004": "夙川", "W01_005": "3", "W01_006": "4", "W01_007": 24.0, "W01_008": 302.0, "W01_009": 125, "W01_010": 1185, "W01_011": "5", "W01_012": "1968", "W01_013": "兵庫県西宮市甲山町・甲陽園目神山町", "W01_014": 2, "name": "北山第1", "edition": "2014", "kind": "dams", "sourceUrl": "https://nlftp.mlit.go.jp/ksj/gml/datalist/KsjTmplt-W01.html"}, "geometry": {"type": "Point", "coordinates": [135.3222619830001, 34.77200161700006]}}, {"type": "Feature", "id": "dams-1449", "properties": {"W01_001": "北山第4", "W01_002": 1517, "W01_003": "夙川", "W01_004": "夙川", "W01_005": "3", "W01_006": "4", "W01_007": 16.0, "W01_008": 155.0, "W01_009": 38, "W01_010": 1185, "W01_011": "5", "W01_012": "1968", "W01_013": "兵庫県西宮市甲山町・北山町", "W01_014": 2, "name": "北山第4", "edition": "2014", "kind": "dams", "sourceUrl": "https://nlftp.mlit.go.jp/ksj/gml/datalist/KsjTmplt-W01.html"}, "geometry": {"type": "Point", "coordinates": [135.32277329800002, 34.77429389400004]}}, {"type": "Feature", "id": "dams-1450", "properties": {"W01_001": "布引五本松（再）", "W01_002": 1519, "W01_003": "生田川", "W01_004": "生田川", "W01_005": "7", "W01_006": "4", "W01_007": 33.3, "W01_008": 110.3, "W01_009": 26, "W01_010": 601, "W01_011": "5", "W01_012": "2004", "W01_013": "兵庫県神戸市中央区葺合町山郡", "W01_014": 2, "name": "布引五本松（再）", "edition": "2014", "kind": "dams", "sourceUrl": "https://nlftp.mlit.go.jp/ksj/gml/datalist/KsjTmplt-W01.html"}, "geometry": {"type": "Point", "coordinates": [135.19000682, 34.71103940000006]}}, {"type": "Feature", "id": "dams-1451", "properties": {"W01_001": "布引五本松（元）", "W01_002": 1518, "W01_003": "生田川", "W01_004": "生田川", "W01_005": "7", "W01_006": "4", "W01_007": 33.3, "W01_008": 110.3, "W01_009": 22, "W01_010": 417, "W01_011": "5", "W01_012": "1900", "W01_013": "兵庫県神戸市中央区葺合町山郡", "W01_014": 2, "name": "布引五本松（元）", "edition": "2014", "kind": "dams", "sourceUrl": "https://nlftp.mlit.go.jp/ksj/gml/datalist/KsjTmplt-W01.html"}, "geometry": {"type": "Point", "coordinates": [135.19000682, 34.71103940000006]}}, {"type": "Feature", "id": "dams-1452", "properties": {"W01_001": "立ヶ畑", "W01_002": 1522, "W01_003": "新湊川", "W01_004": "石井川", "W01_005": "7", "W01_006": "4", "W01_007": 33.3, "W01_008": 122.4, "W01_009": 26, "W01_010": 1248, "W01_011": "5", "W01_012": "1905", "W01_013": "兵庫県神戸市兵庫区鳥原町東山", "W01_014": 1, "name": "立ヶ畑", "edition": "2014", "kind": "dams", "sourceUrl": "https://nlftp.mlit.go.jp/ksj/gml/datalist/KsjTmplt-W01.html"}, "geometry": {"type": "Point", "coordinates": [135.15874063900003, 34.691610784000034]}}, {"type": "Feature", "id": "dams-1453", "properties": {"W01_001": "天王", "W01_002": 1521, "W01_003": "新湊川", "W01_004": "天王谷川", "W01_005": "7", "W01_006": "1", "W01_007": 33.8, "W01_008": 127.0, "W01_009": 51, "W01_010": 800, "W01_011": "4", "W01_012": "1980", "W01_013": "兵庫県神戸市北区山田町谷上", "W01_014": 1, "name": "天王", "edition": "2014", "kind": "dams", "sourceUrl": "https://nlftp.mlit.go.jp/ksj/gml/datalist/KsjTmplt-W01.html"}, "geometry": {"type": "Point", "coordinates": [135.15955209100002, 34.717142393000074]}}, {"type": "Feature", "id": "dams-1454", "properties": {"W01_001": "石井", "W01_002": 1520, "W01_003": "新湊川", "W01_004": "鳥原川", "W01_005": "7", "W01_006": "1,8", "W01_007": 66.2, "W01_008": 155.0, "W01_009": 182, "W01_010": 2200, "W01_011": "4", "W01_012": "2008", "W01_013": "兵庫県神戸市北区山田町下谷上", "W01_014": 1, "name": "石井", "edition": "2014", "kind": "dams", "sourceUrl": "https://nlftp.mlit.go.jp/ksj/gml/datalist/KsjTmplt-W01.html"}, "geometry": {"type": "Point", "coordinates": [135.14759503900007, 34.70426412000006]}}, {"type": "Feature", "id": "dams-1455", "properties": {"W01_001": "室谷", "W01_002": 1524, "W01_003": "明石川", "W01_004": "伊川", "W01_005": "3", "W01_006": "1,3", "W01_007": 30.0, "W01_008": 126.0, "W01_009": 370, "W01_010": 101, "W01_011": "5", "W01_012": "1987", "W01_013": "兵庫県神戸市西区井吹台東町7丁目", "W01_014": 4, "name": "室谷", "edition": "2014", "kind": "dams", "sourceUrl": "https://nlftp.mlit.go.jp/ksj/gml/datalist/KsjTmplt-W01.html"}, "geometry": {"type": "Point", "coordinates": [135.04363618000002, 34.70333333000008]}}, {"type": "Feature", "id": "dams-1456", "properties": {"W01_001": "永井谷", "W01_002": 1527, "W01_003": "明石川", "W01_004": "永井谷川", "W01_005": "3", "W01_006": "1,3", "W01_007": 25.3, "W01_008": 160.0, "W01_009": 267, "W01_010": 129, "W01_011": "5", "W01_012": "1983", "W01_013": "兵庫県神戸市西区井吹台西町2丁目", "W01_014": 2, "name": "永井谷", "edition": "2014", "kind": "dams", "sourceUrl": "https://nlftp.mlit.go.jp/ksj/gml/datalist/KsjTmplt-W01.html"}, "geometry": {"type": "Point", "coordinates": [135.03029920500012, 34.695862788000056]}}, {"type": "Feature", "id": "dams-1457", "properties": {"W01_001": "平荘第1", "W01_002": 1537, "W01_003": "加古川", "W01_004": "加古川", "W01_005": "3", "W01_006": "5", "W01_007": 26.0, "W01_008": 570.0, "W01_009": 654, "W01_010": 9400, "W01_011": "7", "W01_012": "1969", "W01_013": "兵庫県加古川市平荘町池尻", "W01_014": 2, "name": "平荘第1", "edition": "2014", "kind": "dams", "sourceUrl": "https://nlftp.mlit.go.jp/ksj/gml/datalist/KsjTmplt-W01.html"}, "geometry": {"type": "Point", "coordinates": [134.85496706300012, 34.79084224200005]}}, {"type": "Feature", "id": "dams-1458", "properties": {"W01_001": "平荘第2", "W01_002": 1529, "W01_003": "加古川", "W01_004": "加古川", "W01_005": "3", "W01_006": "5", "W01_007": 19.5, "W01_008": 670.0, "W01_009": 300, "W01_010": 9400, "W01_011": "7", "W01_012": "1969", "W01_013": "兵庫県加古川市平荘町里", "W01_014": 2, "name": "平荘第2", "edition": "2014", "kind": "dams", "sourceUrl": "https://nlftp.mlit.go.jp/ksj/gml/datalist/KsjTmplt-W01.html"}, "geometry": {"type": "Point", "coordinates": [134.85650153300003, 34.795336011000074]}}, {"type": "Feature", "id": "dams-1459", "properties": {"W01_001": "平荘第3", "W01_002": 1530, "W01_003": "加古川", "W01_004": "加古川", "W01_005": "7", "W01_006": "5", "W01_007": 15.7, "W01_008": 165.8, "W01_009": 7, "W01_010": 9400, "W01_011": "7", "W01_012": "1969", "W01_013": "兵庫県加古川市東神吉町升田", "W01_014": 2, "name": "平荘第3", "edition": "2014", "kind": "dams", "sourceUrl": "https://nlftp.mlit.go.jp/ksj/gml/datalist/KsjTmplt-W01.html"}, "geometry": {"type": "Point", "coordinates": [134.8424465500001, 34.79456908000003]}}, {"type": "Feature", "id": "dams-1460", "properties": {"W01_001": "加古川大堰", "W01_002": 1553, "W01_003": "加古川", "W01_004": "加古川", "W01_005": "6", "W01_006": "1,2,4", "W01_007": 6.0, "W01_008": 422.5, "W01_009": -9999, "W01_010": 1960, "W01_011": "1", "W01_012": "1988", "W01_013": "兵庫県加古川市", "W01_014": 1, "name": "加古川大堰", "edition": "2014", "kind": "dams", "sourceUrl": "https://nlftp.mlit.go.jp/ksj/gml/datalist/KsjTmplt-W01.html"}, "geometry": {"type": "Point", "coordinates": [134.89100000000008, 34.79516667000007]}}, {"type": "Feature", "id": "dams-1467", "properties": {"W01_001": "昭和池", "W01_002": 1539, "W01_003": "加古川", "W01_004": "三草川", "W01_005": "3", "W01_006": "3", "W01_007": 29.0, "W01_008": 205.4, "W01_009": 248, "W01_010": 1502, "W01_011": "4", "W01_012": "1932", "W01_013": "兵庫県加東市馬瀬", "W01_014": 1, "name": "昭和池", "edition": "2014", "kind": "dams", "sourceUrl": "https://nlftp.mlit.go.jp/ksj/gml/datalist/KsjTmplt-W01.html"}, "geometry": {"type": "Point", "coordinates": [135.01625648000004, 34.938386500000036]}}, {"type": "Feature", "id": "dams-1468", "properties": {"W01_001": "大川瀬", "W01_002": 1535, "W01_003": "加古川", "W01_004": "東条川", "W01_005": "7", "W01_006": "3,4", "W01_007": 50.8, "W01_008": 164.0, "W01_009": 145, "W01_010": 9300, "W01_011": "3", "W01_012": "1991", "W01_013": "兵庫県三田市大川瀬", "W01_014": 1, "name": "大川瀬", "edition": "2014", "kind": "dams", "sourceUrl": "https://nlftp.mlit.go.jp/ksj/gml/datalist/KsjTmplt-W01.html"}, "geometry": {"type": "Point", "coordinates": [135.11691816000007, 34.94598006000007]}}, {"type": "Feature", "id": "dams-1469", "properties": {"W01_001": "安政池", "W01_002": 1544, "W01_003": "加古川", "W01_004": "東条川", "W01_005": "3", "W01_006": "3", "W01_007": 29.0, "W01_008": 185.0, "W01_009": 192, "W01_010": 642, "W01_011": "3", "W01_012": "1963", "W01_013": "兵庫県加東市松沢", "W01_014": 1, "name": "安政池", "edition": "2014", "kind": "dams", "sourceUrl": "https://nlftp.mlit.go.jp/ksj/gml/datalist/KsjTmplt-W01.html"}, "geometry": {"type": "Point", "coordinates": [135.00803218500005, 34.89706948600008]}}, {"type": "Feature", "id": "dams-1470", "properties": {"W01_001": "船木池", "W01_002": 1546, "W01_003": "加古川", "W01_004": "東条川", "W01_005": "3", "W01_006": "3", "W01_007": 31.0, "W01_008": 334.0, "W01_009": 247, "W01_010": 1615, "W01_011": "3", "W01_012": "1959", "W01_013": "兵庫県小野市万勝寺町", "W01_014": 1, "name": "船木池", "edition": "2014", "kind": "dams", "sourceUrl": "https://nlftp.mlit.go.jp/ksj/gml/datalist/KsjTmplt-W01.html"}, "geometry": {"type": "Point", "coordinates": [134.9899907900001, 34.87635607000004]}}, {"type": "Feature", "id": "dams-1471", "properties": {"W01_001": "鴨川", "W01_002": 1542, "W01_003": "加古川", "W01_004": "鴨川", "W01_005": "7", "W01_006": "3", "W01_007": 42.2, "W01_008": 97.1, "W01_009": 48, "W01_010": 8675, "W01_011": "3", "W01_012": "1951", "W01_013": "兵庫県加東市黒谷", "W01_014": 2, "name": "鴨川", "edition": "2014", "kind": "dams", "sourceUrl": "https://nlftp.mlit.go.jp/ksj/gml/datalist/KsjTmplt-W01.html"}, "geometry": {"type": "Point", "coordinates": [135.07238600900007, 34.930029114000035]}}, {"type": "Feature", "id": "dams-1472", "properties": {"W01_001": "大芸3号池", "W01_002": 1548, "W01_003": "加古川", "W01_004": "志染川", "W01_005": "3", "W01_006": "3", "W01_007": 15.0, "W01_008": 97.0, "W01_009": -9999, "W01_010": 4, "W01_011": "5", "W01_012": "-", "W01_013": "兵庫県三木市志染町窟屋", "W01_014": 4, "name": "大芸3号池", "edition": "2014", "kind": "dams", "sourceUrl": "https://nlftp.mlit.go.jp/ksj/gml/datalist/KsjTmplt-W01.html"}, "geometry": {"type": "Point", "coordinates": [135.04084370500004, 34.78704783000006]}}, {"type": "Feature", "id": "dams-1473", "properties": {"W01_001": "土林池", "W01_002": 1549, "W01_003": "加古川", "W01_004": "志染川", "W01_005": "3", "W01_006": "3", "W01_007": 18.2, "W01_008": 142.0, "W01_009": 99, "W01_010": 223, "W01_011": "5", "W01_012": "1849", "W01_013": "兵庫県三木市志染町窟屋", "W01_014": 4, "name": "土林池", "edition": "2014", "kind": "dams", "sourceUrl": "https://nlftp.mlit.go.jp/ksj/gml/datalist/KsjTmplt-W01.html"}, "geometry": {"type": "Point", "coordinates": [135.0442106700001, 34.787424990000034]}}, {"type": "Feature", "id": "dams-1474", "properties": {"W01_001": "萩原北大池", "W01_002": 1545, "W01_003": "加古川", "W01_004": "淡河川", "W01_005": "3", "W01_006": "3", "W01_007": 18.0, "W01_008": 92.0, "W01_009": -9999, "W01_010": 62, "W01_011": "5", "W01_012": "-", "W01_013": "兵庫県神戸市兵庫区淡河町萩原", "W01_014": 4, "name": "萩原北大池", "edition": "2014", "kind": "dams", "sourceUrl": "https://nlftp.mlit.go.jp/ksj/gml/datalist/KsjTmplt-W01.html"}, "geometry": {"type": "Point", "coordinates": [135.11295617000007, 34.819091599000046]}}, {"type": "Feature", "id": "dams-1475", "properties": {"W01_001": "山田池", "W01_002": 1547, "W01_003": "加古川", "W01_004": "一ノ瀬谷川", "W01_005": "7", "W01_006": "3", "W01_007": 27.3, "W01_008": 78.0, "W01_009": 15, "W01_010": 424, "W01_011": "4", "W01_012": "1932", "W01_013": "兵庫県神戸市北区山田町衝原", "W01_014": 1, "name": "山田池", "edition": "2014", "kind": "dams", "sourceUrl": "https://nlftp.mlit.go.jp/ksj/gml/datalist/KsjTmplt-W01.html"}, "geometry": {"type": "Point", "coordinates": [135.07858123000005, 34.76673865400005]}}, {"type": "Feature", "id": "dams-1476", "properties": {"W01_001": "呑吐", "W01_002": 1534, "W01_003": "加古川", "W01_004": "山田川", "W01_005": "7", "W01_006": "3,4", "W01_007": 71.5, "W01_008": 260.0, "W01_009": 370, "W01_010": 18860, "W01_011": "3", "W01_012": "1987", "W01_013": "兵庫県三木市志染町三津田", "W01_014": 1, "name": "呑吐", "edition": "2014", "kind": "dams", "sourceUrl": "https://nlftp.mlit.go.jp/ksj/gml/datalist/KsjTmplt-W01.html"}, "geometry": {"type": "Point", "coordinates": [135.0716927300001, 34.77349158000004]}}, {"type": "Feature", "id": "dams-1477", "properties": {"W01_001": "権現第1", "W01_002": 1528, "W01_003": "加古川", "W01_004": "権現川", "W01_005": "12", "W01_006": "5", "W01_007": 32.6, "W01_008": 357.4, "W01_009": 856, "W01_010": 11120, "W01_011": "7", "W01_012": "1981", "W01_013": "兵庫県加古川市平荘町上原", "W01_014": 1, "name": "権現第1", "edition": "2014", "kind": "dams", "sourceUrl": "https://nlftp.mlit.go.jp/ksj/gml/datalist/KsjTmplt-W01.html"}, "geometry": {"type": "Point", "coordinates": [134.8752582200001, 34.81842535000004]}}, {"type": "Feature", "id": "dams-1478", "properties": {"W01_001": "権現第3", "W01_002": 1552, "W01_003": "加古川", "W01_004": "権現川", "W01_005": "12", "W01_006": "5", "W01_007": 22.6, "W01_008": 255.0, "W01_009": 277, "W01_010": -9999, "W01_011": "7", "W01_012": "1981", "W01_013": "兵庫県加古川市平荘町盤", "W01_014": 1, "name": "権現第3", "edition": "2014", "kind": "dams", "sourceUrl": "https://nlftp.mlit.go.jp/ksj/gml/datalist/KsjTmplt-W01.html"}, "geometry": {"type": "Point", "coordinates": [134.8791730900001, 34.82697549000005]}}, {"type": "Feature", "id": "dams-1502", "properties": {"W01_001": "谷山", "W01_002": 1580, "W01_003": "楠本川", "W01_004": "楠本川", "W01_005": "3", "W01_006": "3", "W01_007": 28.2, "W01_008": 151.4, "W01_009": 80, "W01_010": 412, "W01_011": "3", "W01_012": "1974", "W01_013": "兵庫県淡路市楠本", "W01_014": 1, "name": "谷山", "edition": "2014", "kind": "dams", "sourceUrl": "https://nlftp.mlit.go.jp/ksj/gml/datalist/KsjTmplt-W01.html"}, "geometry": {"type": "Point", "coordinates": [134.99352780000004, 34.56455556000003]}}, {"type": "Feature", "id": "dams-1503", "properties": {"W01_001": "大谷池", "W01_002": 1581, "W01_003": "楠本川", "W01_004": "楠本川", "W01_005": "3", "W01_006": "3", "W01_007": 16.6, "W01_008": 100.0, "W01_009": 33, "W01_010": 224, "W01_011": "4", "W01_012": "1970", "W01_013": "兵庫県淡路市楠本", "W01_014": 1, "name": "大谷池", "edition": "2014", "kind": "dams", "sourceUrl": "https://nlftp.mlit.go.jp/ksj/gml/datalist/KsjTmplt-W01.html"}, "geometry": {"type": "Point", "coordinates": [134.98888230400007, 34.57190386700006]}}, {"type": "Feature", "id": "dams-1504", "properties": {"W01_001": "昭和池", "W01_002": 1583, "W01_003": "浦川", "W01_004": "鵜崎川", "W01_005": "3", "W01_006": "3", "W01_007": 23.0, "W01_008": 70.0, "W01_009": 31, "W01_010": 62, "W01_011": "5", "W01_012": "1944", "W01_013": "兵庫県淡路市中の内", "W01_014": 1, "name": "昭和池", "edition": "2014", "kind": "dams", "sourceUrl": "https://nlftp.mlit.go.jp/ksj/gml/datalist/KsjTmplt-W01.html"}, "geometry": {"type": "Point", "coordinates": [135.006873777, 34.57550007800006]}}, {"type": "Feature", "id": "dams-1505", "properties": {"W01_001": "河内", "W01_002": 1582, "W01_003": "浦川", "W01_004": "浦川", "W01_005": "3", "W01_006": "3", "W01_007": 24.0, "W01_008": 152.8, "W01_009": 114, "W01_010": 250, "W01_011": "4", "W01_012": "1985", "W01_013": "兵庫県淡路市河内", "W01_014": 2, "name": "河内", "edition": "2014", "kind": "dams", "sourceUrl": "https://nlftp.mlit.go.jp/ksj/gml/datalist/KsjTmplt-W01.html"}, "geometry": {"type": "Point", "coordinates": [134.96153735000007, 34.52593265000007]}}, {"type": "Feature", "id": "dams-1506", "properties": {"W01_001": "板木池", "W01_002": 1584, "W01_003": "佐野川", "W01_004": "興隆寺川", "W01_005": "3", "W01_006": "3,4", "W01_007": 18.5, "W01_008": 62.0, "W01_009": 35, "W01_010": 106, "W01_011": "13", "W01_012": "1866", "W01_013": "兵庫県淡路市興隆寺", "W01_014": 4, "name": "板木池", "edition": "2014", "kind": "dams", "sourceUrl": "https://nlftp.mlit.go.jp/ksj/gml/datalist/KsjTmplt-W01.html"}, "geometry": {"type": "Point", "coordinates": [134.93052255500004, 34.49467617500005]}}, {"type": "Feature", "id": "dams-1522", "properties": {"W01_001": "常盤", "W01_002": 1600, "W01_003": "常盤川", "W01_004": "野島川", "W01_005": "3", "W01_006": "3", "W01_007": 33.5, "W01_008": 94.6, "W01_009": 121, "W01_010": 669, "W01_011": "3", "W01_012": "1974", "W01_013": "兵庫県淡路市常盤", "W01_014": 1, "name": "常盤", "edition": "2014", "kind": "dams", "sourceUrl": "https://nlftp.mlit.go.jp/ksj/gml/datalist/KsjTmplt-W01.html"}, "geometry": {"type": "Point", "coordinates": [134.95523108300006, 34.55375146200004]}}, {"type": "Feature", "id": "dams-1527", "properties": {"W01_001": "西谷大池", "W01_002": 1555, "W01_003": "加古川", "W01_004": "美襄川", "W01_005": "3", "W01_006": "3", "W01_007": 15.0, "W01_008": 76.0, "W01_009": -9999, "W01_010": 83, "W01_011": "5", "W01_012": "-", "W01_013": "兵庫県三木市細川町下芝原", "W01_014": 4, "name": "西谷大池", "edition": "2014", "kind": "dams", "sourceUrl": "https://nlftp.mlit.go.jp/ksj/gml/datalist/KsjTmplt-W01.html"}, "geometry": {"type": "Point", "coordinates": [135.01220775000002, 34.82009701000004]}}, {"type": "Feature", "id": "dams-1530", "properties": {"W01_001": "山田", "W01_002": 1512, "W01_003": "武庫川", "W01_004": "山田川", "W01_005": "7", "W01_006": "3,4", "W01_007": 15.8, "W01_008": 58.0, "W01_009": 6, "W01_010": 174, "W01_011": "5", "W01_012": "1968", "W01_013": "兵庫県三田市山田字滑谷603番地先", "W01_014": 1, "name": "山田", "edition": "2014", "kind": "dams", "sourceUrl": "https://nlftp.mlit.go.jp/ksj/gml/datalist/KsjTmplt-W01.html"}, "geometry": {"type": "Point", "coordinates": [135.25115731800008, 34.89621471800007]}}, {"type": "Feature", "id": "dams-1532", "properties": {"W01_001": "南谷口", "W01_002": 1523, "W01_003": "明石川", "W01_004": "南谷口川", "W01_005": "3", "W01_006": "1,3", "W01_007": 22.1, "W01_008": 153.0, "W01_009": -9999, "W01_010": 76, "W01_011": "5", "W01_012": "1994", "W01_013": "兵庫県神戸市西区井吹台西町2丁目", "W01_014": 3, "name": "南谷口", "edition": "2014", "kind": "dams", "sourceUrl": "https://nlftp.mlit.go.jp/ksj/gml/datalist/KsjTmplt-W01.html"}, "geometry": {"type": "Point", "coordinates": [135.0171014240001, 34.69612695400008]}}, {"type": "Feature", "id": "dams-1533", "properties": {"W01_001": "小池", "W01_002": 1525, "W01_003": "明石川", "W01_004": "伊川", "W01_005": "3", "W01_006": "1,3", "W01_007": 28.5, "W01_008": -9999.0, "W01_009": -9999, "W01_010": 64, "W01_011": "5", "W01_012": "1990", "W01_013": "兵庫県神戸市西区井吹台西町3丁目", "W01_014": 3, "name": "小池", "edition": "2014", "kind": "dams", "sourceUrl": "https://nlftp.mlit.go.jp/ksj/gml/datalist/KsjTmplt-W01.html"}, "geometry": {"type": "Point", "coordinates": [135.02406950900001, 34.691089773000044]}}, {"type": "Feature", "id": "dams-1534", "properties": {"W01_001": "大戸口", "W01_002": 1526, "W01_003": "明石川", "W01_004": "伊川", "W01_005": "3", "W01_006": "1,3", "W01_007": 23.3, "W01_008": -9999.0, "W01_009": -9999, "W01_010": 186, "W01_011": "5", "W01_012": "1989", "W01_013": "兵庫県神戸市西区井吹台東町2丁目", "W01_014": 3, "name": "大戸口", "edition": "2014", "kind": "dams", "sourceUrl": "https://nlftp.mlit.go.jp/ksj/gml/datalist/KsjTmplt-W01.html"}, "geometry": {"type": "Point", "coordinates": [135.03436073500006, 34.69771930600007]}}]}