{"type": "FeatureCollection", "features": [{"type": "Feature", "id": "water-plants-0", "properties": {"P21B_001": "小野市", "P21B_002": "小野市上水道事業", "P21B_003": "船本浄水場", "P21B_004": 7200.0, "検査ID": 4.0, "name": "船本浄水場", "edition": "2010 (2012 publication)", "kind": "water-plants", "sourceUrl": "https://nlftp.mlit.go.jp/ksj/gml/datalist/KsjTmplt-P21.html"}, "geometry": {"type": "Point", "coordinates": [134.9807123, 34.87916553]}}, {"type": "Feature", "id": "water-plants-8", "properties": {"P21B_001": "三田市", "P21B_002": "三田市上水道事業", "P21B_003": "高平浄水場", "P21B_004": 1025.0, "検査ID": 36.0, "name": "高平浄水場", "edition": "2010 (2012 publication)", "kind": "water-plants", "sourceUrl": "https://nlftp.mlit.go.jp/ksj/gml/datalist/KsjTmplt-P21.html"}, "geometry": {"type": "Point", "coordinates": [135.2699942, 34.97895479]}}, {"type": "Feature", "id": "water-plants-9", "properties": {"P21B_001": "猪名川町", "P21B_002": "猪名川町上水道事業", "P21B_003": "清水東水源井", "P21B_004": 400.0, "検査ID": 37.0, "name": "清水東水源井", "edition": "2010 (2012 publication)", "kind": "water-plants", "sourceUrl": "https://nlftp.mlit.go.jp/ksj/gml/datalist/KsjTmplt-P21.html"}, "geometry": {"type": "Point", "coordinates": [135.3225759, 34.9645141]}}, {"type": "Feature", "id": "water-plants-10", "properties": {"P21B_001": "猪名川町", "P21B_002": "猪名川町上水道事業", "P21B_003": "笹尾浄水場", "P21B_004": 1800.0, "検査ID": 39.0, "name": "笹尾浄水場", "edition": "2010 (2012 publication)", "kind": "water-plants", "sourceUrl": "https://nlftp.mlit.go.jp/ksj/gml/datalist/KsjTmplt-P21.html"}, "geometry": {"type": "Point", "coordinates": [135.3266611, 34.95633195]}}, {"type": "Feature", "id": "water-plants-11", "properties": {"P21B_001": "神戸市", "P21B_002": "神戸市上水道事業", "P21B_003": "千苅浄水場", "P21B_004": 58000.0, "検査ID": 43.0, "name": "千苅浄水場", "edition": "2010 (2012 publication)", "kind": "water-plants", "sourceUrl": "https://nlftp.mlit.go.jp/ksj/gml/datalist/KsjTmplt-P21.html"}, "geometry": {"type": "Point", "coordinates": [135.2667418, 34.86920566]}}, {"type": "Feature", "id": "water-plants-12", "properties": {"P21B_001": "宝塚市", "P21B_002": "宝塚市上水道事業", "P21B_003": "玉瀬浄水場", "P21B_004": 2000.0, "検査ID": 46.0, "name": "玉瀬浄水場", "edition": "2010 (2012 publication)", "kind": "water-plants", "sourceUrl": "https://nlftp.mlit.go.jp/ksj/gml/datalist/KsjTmplt-P21.html"}, "geometry": {"type": "Point", "coordinates": [135.3028638, 34.88473054]}}, {"type": "Feature", "id": "water-plants-13", "properties": {"P21B_001": "川西市", "P21B_002": "川西市上水道事業", "P21B_003": "多田浄水場", "P21B_004": 110880.0, "検査ID": 47.0, "name": "多田浄水場", "edition": "2010 (2012 publication)", "kind": "water-plants", "sourceUrl": "https://nlftp.mlit.go.jp/ksj/gml/datalist/KsjTmplt-P21.html"}, "geometry": {"type": "Point", "coordinates": [135.3934415, 34.86337625]}}, {"type": "Feature", "id": "water-plants-14", "properties": {"P21B_001": "西宮市", "P21B_002": "西宮市上水道事業", "P21B_003": "越水浄水場（休止）", "P21B_004": 0.0, "検査ID": 55.0, "name": "越水浄水場（休止）", "edition": "2010 (2012 publication)", "kind": "water-plants", "sourceUrl": "https://nlftp.mlit.go.jp/ksj/gml/datalist/KsjTmplt-P21.html"}, "geometry": {"type": "Point", "coordinates": [135.3361222, 34.75245101]}}, {"type": "Feature", "id": "water-plants-15", "properties": {"P21B_001": "西宮市", "P21B_002": "西宮市上水道事業", "P21B_003": "鳴尾浄水場", "P21B_004": 11540.0, "検査ID": 58.0, "name": "鳴尾浄水場", "edition": "2010 (2012 publication)", "kind": "water-plants", "sourceUrl": "https://nlftp.mlit.go.jp/ksj/gml/datalist/KsjTmplt-P21.html"}, "geometry": {"type": "Point", "coordinates": [135.3777538, 34.73438284]}}, {"type": "Feature", "id": "water-plants-16", "properties": {"P21B_001": "芦屋市", "P21B_002": "芦屋市上水道事業", "P21B_003": "六麓送浄水場", "P21B_004": 285.0, "検査ID": 62.0, "name": "六麓送浄水場", "edition": "2010 (2012 publication)", "kind": "water-plants", "sourceUrl": "https://nlftp.mlit.go.jp/ksj/gml/datalist/KsjTmplt-P21.html"}, "geometry": {"type": "Point", "coordinates": [135.3057393, 34.757416]}}, {"type": "Feature", "id": "water-plants-17", "properties": {"P21B_001": "神戸市", "P21B_002": "神戸市上水道事業", "P21B_003": "本山浄水場", "P21B_004": 2000.0, "検査ID": 65.0, "name": "本山浄水場", "edition": "2010 (2012 publication)", "kind": "water-plants", "sourceUrl": "https://nlftp.mlit.go.jp/ksj/gml/datalist/KsjTmplt-P21.html"}, "geometry": {"type": "Point", "coordinates": [135.2626773, 34.73023629]}}, {"type": "Feature", "id": "water-plants-18", "properties": {"P21B_001": "芦屋市", "P21B_002": "芦屋市上水道事業", "P21B_003": "奥池浄水場", "P21B_004": 1710.0, "検査ID": 69.0, "name": "奥池浄水場", "edition": "2010 (2012 publication)", "kind": "water-plants", "sourceUrl": "https://nlftp.mlit.go.jp/ksj/gml/datalist/KsjTmplt-P21.html"}, "geometry": {"type": "Point", "coordinates": [135.2870459, 34.77075165]}}, {"type": "Feature", "id": "water-plants-19", "properties": {"P21B_001": "西宮市", "P21B_002": "西宮市上水道事業", "P21B_003": "丸山浄水場", "P21B_004": 5420.0, "検査ID": 71.0, "name": "丸山浄水場", "edition": "2010 (2012 publication)", "kind": "water-plants", "sourceUrl": "https://nlftp.mlit.go.jp/ksj/gml/datalist/KsjTmplt-P21.html"}, "geometry": {"type": "Point", "coordinates": [135.2549702, 34.83031383]}}, {"type": "Feature", "id": "water-plants-20", "properties": {"P21B_001": "西宮市", "P21B_002": "西宮市上水道事業", "P21B_003": "鯨池浄水場（休止）", "P21B_004": 0.0, "検査ID": 76.0, "name": "鯨池浄水場（休止）", "edition": "2010 (2012 publication)", "kind": "water-plants", "sourceUrl": "https://nlftp.mlit.go.jp/ksj/gml/datalist/KsjTmplt-P21.html"}, "geometry": {"type": "Point", "coordinates": [135.3704458, 34.76765218]}}, {"type": "Feature", "id": "water-plants-21", "properties": {"P21B_001": "宝塚市", "P21B_002": "宝塚市上水道事業", "P21B_003": "小林浄水場", "P21B_004": 20000.0, "検査ID": 95.0, "name": "小林浄水場", "edition": "2010 (2012 publication)", "kind": "water-plants", "sourceUrl": "https://nlftp.mlit.go.jp/ksj/gml/datalist/KsjTmplt-P21.html"}, "geometry": {"type": "Point", "coordinates": [135.3615119, 34.79571458]}}, {"type": "Feature", "id": "water-plants-22", "properties": {"P21B_001": "宝塚市", "P21B_002": "宝塚市上水道事業", "P21B_003": "亀井浄水場", "P21B_004": 8200.0, "検査ID": 96.0, "name": "亀井浄水場", "edition": "2010 (2012 publication)", "kind": "water-plants", "sourceUrl": "https://nlftp.mlit.go.jp/ksj/gml/datalist/KsjTmplt-P21.html"}, "geometry": {"type": "Point", "coordinates": [135.3638174, 34.79450385]}}, {"type": "Feature", "id": "water-plants-23", "properties": {"P21B_001": "伊丹市", "P21B_002": "伊丹市上水道事業", "P21B_003": "千僧浄水場", "P21B_004": 90000.0, "検査ID": 97.0, "name": "千僧浄水場", "edition": "2010 (2012 publication)", "kind": "water-plants", "sourceUrl": "https://nlftp.mlit.go.jp/ksj/gml/datalist/KsjTmplt-P21.html"}, "geometry": {"type": "Point", "coordinates": [135.3989085, 34.78545576]}}, {"type": "Feature", "id": "water-plants-24", "properties": {"P21B_001": "宝塚市", "P21B_002": "宝塚市上水道事業", "P21B_003": "川面浄水場", "P21B_004": 10000.0, "検査ID": 98.0, "name": "川面浄水場", "edition": "2010 (2012 publication)", "kind": "water-plants", "sourceUrl": "https://nlftp.mlit.go.jp/ksj/gml/datalist/KsjTmplt-P21.html"}, "geometry": {"type": "Point", "coordinates": [135.3578101, 34.80548034]}}, {"type": "Feature", "id": "water-plants-25", "properties": {"P21B_001": "宝塚市", "P21B_002": "宝塚市上水道事業", "P21B_003": "小浜浄水場", "P21B_004": 18100.0, "検査ID": 99.0, "name": "小浜浄水場", "edition": "2010 (2012 publication)", "kind": "water-plants", "sourceUrl": "https://nlftp.mlit.go.jp/ksj/gml/datalist/KsjTmplt-P21.html"}, "geometry": {"type": "Point", "coordinates": [135.3605162, 34.80469901]}}, {"type": "Feature", "id": "water-plants-26", "properties": {"P21B_001": "宝塚市", "P21B_002": "宝塚市上水道事業", "P21B_003": "惣川浄水場", "P21B_004": 25000.0, "検査ID": 100.0, "name": "惣川浄水場", "edition": "2010 (2012 publication)", "kind": "water-plants", "sourceUrl": "https://nlftp.mlit.go.jp/ksj/gml/datalist/KsjTmplt-P21.html"}, "geometry": {"type": "Point", "coordinates": [135.3382599, 34.82063139]}}, {"type": "Feature", "id": "water-plants-27", "properties": {"P21B_001": "川西市", "P21B_002": "川西市上水道事業", "P21B_003": "久代浄水場", "P21B_004": 12351.0, "検査ID": 101.0, "name": "久代浄水場", "edition": "2010 (2012 publication)", "kind": "water-plants", "sourceUrl": "https://nlftp.mlit.go.jp/ksj/gml/datalist/KsjTmplt-P21.html"}, "geometry": {"type": "Point", "coordinates": [135.4057422, 34.8097512]}}, {"type": "Feature", "id": "water-plants-28", "properties": {"P21B_001": "西宮市", "P21B_002": "西宮市上水道事業", "P21B_003": "生瀬浄水場", "P21B_004": 5000.0, "検査ID": 102.0, "name": "生瀬浄水場", "edition": "2010 (2012 publication)", "kind": "water-plants", "sourceUrl": "https://nlftp.mlit.go.jp/ksj/gml/datalist/KsjTmplt-P21.html"}, "geometry": {"type": "Point", "coordinates": [135.3341341, 34.81553661]}}, {"type": "Feature", "id": "water-plants-29", "properties": {"P21B_001": "神戸市", "P21B_002": "神戸市上水道事業", "P21B_003": "住吉浄水場", "P21B_004": 2900.0, "検査ID": 103.0, "name": "住吉浄水場", "edition": "2010 (2012 publication)", "kind": "water-plants", "sourceUrl": "https://nlftp.mlit.go.jp/ksj/gml/datalist/KsjTmplt-P21.html"}, "geometry": {"type": "Point", "coordinates": [135.2536391, 34.7345453]}}, {"type": "Feature", "id": "water-plants-30", "properties": {"P21B_001": "芦屋市", "P21B_002": "芦屋市上水道事業", "P21B_003": "奥山浄水場", "P21B_004": 7985.0, "検査ID": 104.0, "name": "奥山浄水場", "edition": "2010 (2012 publication)", "kind": "water-plants", "sourceUrl": "https://nlftp.mlit.go.jp/ksj/gml/datalist/KsjTmplt-P21.html"}, "geometry": {"type": "Point", "coordinates": [135.2957148, 34.7474936]}}, {"type": "Feature", "id": "water-plants-31", "properties": {"P21B_001": "尼崎市", "P21B_002": "尼崎市上水道事業", "P21B_003": "神崎浄水場", "P21B_004": 40000.0, "検査ID": 105.0, "name": "神崎浄水場", "edition": "2010 (2012 publication)", "kind": "water-plants", "sourceUrl": "https://nlftp.mlit.go.jp/ksj/gml/datalist/KsjTmplt-P21.html"}, "geometry": {"type": "Point", "coordinates": [135.4441411, 34.73691121]}}, {"type": "Feature", "id": "water-plants-32", "properties": {"P21B_001": "尼崎市", "P21B_002": "尼崎市上水道事業", "P21B_003": "尼崎浄水場", "P21B_004": 373000.0, "検査ID": 106.0, "name": "尼崎浄水場", "edition": "2010 (2012 publication)", "kind": "water-plants", "sourceUrl": "https://nlftp.mlit.go.jp/ksj/gml/datalist/KsjTmplt-P21.html"}, "geometry": {"type": "Point", "coordinates": [135.4209412, 34.74387184]}}, {"type": "Feature", "id": "water-plants-33", "properties": {"P21B_001": "伊丹市", "P21B_002": "伊丹市上水道事業", "P21B_003": "猪名川浄水場", "P21B_004": 916900.0, "検査ID": 107.0, "name": "猪名川浄水場", "edition": "2010 (2012 publication)", "kind": "water-plants", "sourceUrl": "https://nlftp.mlit.go.jp/ksj/gml/datalist/KsjTmplt-P21.html"}, "geometry": {"type": "Point", "coordinates": [135.420915, 34.77856287]}}, {"type": "Feature", "id": "water-plants-34", "properties": {"P21B_001": "西宮市", "P21B_002": "西宮市上水道事業", "P21B_003": "上ヶ原浄水場", "P21B_004": 36400.0, "検査ID": 108.0, "name": "上ヶ原浄水場", "edition": "2010 (2012 publication)", "kind": "water-plants", "sourceUrl": "https://nlftp.mlit.go.jp/ksj/gml/datalist/KsjTmplt-P21.html"}, "geometry": {"type": "Point", "coordinates": [135.3428893, 34.77056055]}}, {"type": "Feature", "id": "water-plants-63", "properties": {"P21B_001": "三田市", "P21B_002": "三田市上水道事業", "P21B_003": "古城浄水場", "P21B_004": 10000.0, "検査ID": 191.0, "name": "古城浄水場", "edition": "2010 (2012 publication)", "kind": "water-plants", "sourceUrl": "https://nlftp.mlit.go.jp/ksj/gml/datalist/KsjTmplt-P21.html"}, "geometry": {"type": "Point", "coordinates": [135.22149, 34.88773371]}}, {"type": "Feature", "id": "water-plants-64", "properties": {"P21B_001": "加東市", "P21B_002": "加東市上水道事業", "P21B_003": "上鴨川浄水場", "P21B_004": 150.0, "検査ID": 193.0, "name": "上鴨川浄水場", "edition": "2010 (2012 publication)", "kind": "water-plants", "sourceUrl": "https://nlftp.mlit.go.jp/ksj/gml/datalist/KsjTmplt-P21.html"}, "geometry": {"type": "Point", "coordinates": [135.0535882, 34.9848549]}}, {"type": "Feature", "id": "water-plants-65", "properties": {"P21B_001": "三田市", "P21B_002": "三田市上水道事業", "P21B_003": "三田浄水場", "P21B_004": 92000.0, "検査ID": 194.0, "name": "三田浄水場", "edition": "2010 (2012 publication)", "kind": "water-plants", "sourceUrl": "https://nlftp.mlit.go.jp/ksj/gml/datalist/KsjTmplt-P21.html"}, "geometry": {"type": "Point", "coordinates": [135.1998229, 34.91654934]}}, {"type": "Feature", "id": "water-plants-66", "properties": {"P21B_001": "加東市", "P21B_002": "加東市上水道事業", "P21B_003": "秋津浄水場", "P21B_004": 2790.0, "検査ID": 202.0, "name": "秋津浄水場", "edition": "2010 (2012 publication)", "kind": "water-plants", "sourceUrl": "https://nlftp.mlit.go.jp/ksj/gml/datalist/KsjTmplt-P21.html"}, "geometry": {"type": "Point", "coordinates": [135.0792914, 34.92381893]}}, {"type": "Feature", "id": "water-plants-67", "properties": {"P21B_001": "三木市", "P21B_002": "三木市上水道事業", "P21B_003": "三木市緑が丘浄水場", "P21B_004": 9145.0, "検査ID": 238.0, "name": "三木市緑が丘浄水場", "edition": "2010 (2012 publication)", "kind": "water-plants", "sourceUrl": "https://nlftp.mlit.go.jp/ksj/gml/datalist/KsjTmplt-P21.html"}, "geometry": {"type": "Point", "coordinates": [135.0267802, 34.76946216]}}, {"type": "Feature", "id": "water-plants-68", "properties": {"P21B_001": "神戸市", "P21B_002": "神戸市（六甲山）上水道事業", "P21B_003": "六甲山浄水場", "P21B_004": 620.0, "検査ID": 250.0, "name": "六甲山浄水場", "edition": "2010 (2012 publication)", "kind": "water-plants", "sourceUrl": "https://nlftp.mlit.go.jp/ksj/gml/datalist/KsjTmplt-P21.html"}, "geometry": {"type": "Point", "coordinates": [135.2367103, 34.76476856]}}, {"type": "Feature", "id": "water-plants-69", "properties": {"P21B_001": "三木市", "P21B_002": "三木市上水道事業", "P21B_003": "三木市脇川浄水場", "P21B_004": 1484.0, "検査ID": 253.0, "name": "三木市脇川浄水場", "edition": "2010 (2012 publication)", "kind": "water-plants", "sourceUrl": "https://nlftp.mlit.go.jp/ksj/gml/datalist/KsjTmplt-P21.html"}, "geometry": {"type": "Point", "coordinates": [135.0148973, 34.82497236]}}, {"type": "Feature", "id": "water-plants-70", "properties": {"P21B_001": "神戸市", "P21B_002": "神戸市上水道事業", "P21B_003": "奥平野浄水場", "P21B_004": 20700.0, "検査ID": 254.0, "name": "奥平野浄水場", "edition": "2010 (2012 publication)", "kind": "water-plants", "sourceUrl": "https://nlftp.mlit.go.jp/ksj/gml/datalist/KsjTmplt-P21.html"}, "geometry": {"type": "Point", "coordinates": [135.17638, 34.69456465]}}, {"type": "Feature", "id": "water-plants-71", "properties": {"P21B_001": "淡路広域水道企業団", "P21B_002": "淡路広域水道企業団上水道事業", "P21B_003": "楠本浄水場", "P21B_004": 1540.0, "検査ID": 262.0, "name": "楠本浄水場", "edition": "2010 (2012 publication)", "kind": "water-plants", "sourceUrl": "https://nlftp.mlit.go.jp/ksj/gml/datalist/KsjTmplt-P21.html"}, "geometry": {"type": "Point", "coordinates": [135.0031843, 34.55789521]}}, {"type": "Feature", "id": "water-plants-72", "properties": {"P21B_001": "淡路広域水道企業団", "P21B_002": "淡路広域水道企業団上水道事業", "P21B_003": "鵜崎浄水場", "P21B_004": 850.0, "検査ID": 269.0, "name": "鵜崎浄水場", "edition": "2010 (2012 publication)", "kind": "water-plants", "sourceUrl": "https://nlftp.mlit.go.jp/ksj/gml/datalist/KsjTmplt-P21.html"}, "geometry": {"type": "Point", "coordinates": [135.0231505, 34.57350531]}}, {"type": "Feature", "id": "water-plants-73", "properties": {"P21B_001": "淡路広域水道企業団", "P21B_002": "淡路広域水道企業団上水道事業", "P21B_003": "御手洗浄水場", "P21B_004": 800.0, "検査ID": 270.0, "name": "御手洗浄水場", "edition": "2010 (2012 publication)", "kind": "water-plants", "sourceUrl": "https://nlftp.mlit.go.jp/ksj/gml/datalist/KsjTmplt-P21.html"}, "geometry": {"type": "Point", "coordinates": [135.0092618, 34.57807067]}}, {"type": "Feature", "id": "water-plants-74", "properties": {"P21B_001": "淡路広域水道企業団", "P21B_002": "淡路広域水道企業団上水道事業", "P21B_003": "松帆浄水場", "P21B_004": 2000.0, "検査ID": 278.0, "name": "松帆浄水場", "edition": "2010 (2012 publication)", "kind": "water-plants", "sourceUrl": "https://nlftp.mlit.go.jp/ksj/gml/datalist/KsjTmplt-P21.html"}, "geometry": {"type": "Point", "coordinates": [135.0050294, 34.60461006]}}, {"type": "Feature", "id": "water-plants-201", "properties": {"P21B_001": "西脇市", "P21B_002": "西脇市（西脇地区）上水道事業", "P21B_003": "滝野浄水場", "P21B_004": 2360.0, "検査ID": 580.0, "name": "滝野浄水場", "edition": "2010 (2012 publication)", "kind": "water-plants", "sourceUrl": "https://nlftp.mlit.go.jp/ksj/gml/datalist/KsjTmplt-P21.html"}, "geometry": {"type": "Point", "coordinates": [134.9680537, 34.93980743]}}, {"type": "Feature", "id": "water-plants-205", "properties": {"P21B_001": "市川町", "P21B_002": "市川町上水道事業", "P21B_003": "上瀬加浄水場", "P21B_004": 5480.0, "検査ID": 590.0, "name": "上瀬加浄水場", "edition": "2010 (2012 publication)", "kind": "water-plants", "sourceUrl": "https://nlftp.mlit.go.jp/ksj/gml/datalist/KsjTmplt-P21.html"}, "geometry": {"type": "Point", "coordinates": [134.8053121, 34.98931384]}}, {"type": "Feature", "id": "water-plants-207", "properties": {"P21B_001": "加東市", "P21B_002": "加東市上水道事業", "P21B_003": "広沢浄水場", "P21B_004": 2760.0, "検査ID": 594.0, "name": "広沢浄水場", "edition": "2010 (2012 publication)", "kind": "water-plants", "sourceUrl": "https://nlftp.mlit.go.jp/ksj/gml/datalist/KsjTmplt-P21.html"}, "geometry": {"type": "Point", "coordinates": [134.9896092, 34.90075416]}}, {"type": "Feature", "id": "water-plants-208", "properties": {"P21B_001": "町営", "P21B_002": "八千代区西簡易水道事業", "P21B_003": "柳山寺浄水場", "P21B_004": 330.0, "検査ID": 609.0, "name": "柳山寺浄水場", "edition": "2010 (2012 publication)", "kind": "water-plants", "sourceUrl": "https://nlftp.mlit.go.jp/ksj/gml/datalist/KsjTmplt-P21.html"}, "geometry": {"type": "Point", "coordinates": [134.8736162, 34.99888948]}}, {"type": "Feature", "id": "water-plants-209", "properties": {"P21B_001": "稲美町", "P21B_002": "稲美町上水道事業", "P21B_003": "東部配水場", "P21B_004": 1436.0, "検査ID": 749.0, "name": "東部配水場", "edition": "2010 (2012 publication)", "kind": "water-plants", "sourceUrl": "https://nlftp.mlit.go.jp/ksj/gml/datalist/KsjTmplt-P21.html"}, "geometry": {"type": "Point", "coordinates": [134.9444791, 34.76144652]}}, {"type": "Feature", "id": "water-plants-210", "properties": {"P21B_001": "加古川市", "P21B_002": "加古川市上水道事業", "P21B_003": "中西条浄水場", "P21B_004": 30450.0, "検査ID": 765.0, "name": "中西条浄水場", "edition": "2010 (2012 publication)", "kind": "water-plants", "sourceUrl": "https://nlftp.mlit.go.jp/ksj/gml/datalist/KsjTmplt-P21.html"}, "geometry": {"type": "Point", "coordinates": [134.8981053, 34.79407265]}}, {"type": "Feature", "id": "water-plants-211", "properties": {"P21B_001": "播磨町", "P21B_002": "播磨町上水道事業", "P21B_003": "谷田浄水場（休止）", "P21B_004": 0.0, "検査ID": 767.0, "name": "谷田浄水場（休止）", "edition": "2010 (2012 publication)", "kind": "water-plants", "sourceUrl": "https://nlftp.mlit.go.jp/ksj/gml/datalist/KsjTmplt-P21.html"}, "geometry": {"type": "Point", "coordinates": [134.8817334, 34.71534981]}}, {"type": "Feature", "id": "water-plants-212", "properties": {"P21B_001": "播磨町", "P21B_002": "播磨町上水道事業", "P21B_003": "第３浄水場", "P21B_004": 11989.0, "検査ID": 769.0, "name": "第３浄水場", "edition": "2010 (2012 publication)", "kind": "water-plants", "sourceUrl": "https://nlftp.mlit.go.jp/ksj/gml/datalist/KsjTmplt-P21.html"}, "geometry": {"type": "Point", "coordinates": [134.8726851, 34.72698032]}}, {"type": "Feature", "id": "water-plants-213", "properties": {"P21B_001": "神戸市", "P21B_002": "神戸市上水道事業", "P21B_003": "神出浄水場", "P21B_004": 98496.0, "検査ID": 770.0, "name": "神出浄水場", "edition": "2010 (2012 publication)", "kind": "water-plants", "sourceUrl": "https://nlftp.mlit.go.jp/ksj/gml/datalist/KsjTmplt-P21.html"}, "geometry": {"type": "Point", "coordinates": [134.9907415, 34.74500872]}}, {"type": "Feature", "id": "water-plants-214", "properties": {"P21B_001": "三木市", "P21B_002": "三木市上水道事業", "P21B_003": "三木市浄水場", "P21B_004": 4646.0, "検査ID": 771.0, "name": "三木市浄水場", "edition": "2010 (2012 publication)", "kind": "water-plants", "sourceUrl": "https://nlftp.mlit.go.jp/ksj/gml/datalist/KsjTmplt-P21.html"}, "geometry": {"type": "Point", "coordinates": [134.9890295, 34.7940525]}}, {"type": "Feature", "id": "water-plants-215", "properties": {"P21B_001": "三木市", "P21B_002": "三木市上水道事業", "P21B_003": "三木市西部浄水場", "P21B_004": 5253.0, "検査ID": 772.0, "name": "三木市西部浄水場", "edition": "2010 (2012 publication)", "kind": "water-plants", "sourceUrl": "https://nlftp.mlit.go.jp/ksj/gml/datalist/KsjTmplt-P21.html"}, "geometry": {"type": "Point", "coordinates": [134.9546359, 34.78638686]}}, {"type": "Feature", "id": "water-plants-216", "properties": {"P21B_001": "高砂市", "P21B_002": "高砂市上水道事業", "P21B_003": "米田水源地", "P21B_004": 44563.0, "検査ID": 774.0, "name": "米田水源地", "edition": "2010 (2012 publication)", "kind": "water-plants", "sourceUrl": "https://nlftp.mlit.go.jp/ksj/gml/datalist/KsjTmplt-P21.html"}, "geometry": {"type": "Point", "coordinates": [134.8145925, 34.77631609]}}, {"type": "Feature", "id": "water-plants-217", "properties": {"P21B_001": "稲美町", "P21B_002": "稲美町上水道事業", "P21B_003": "西部配水場", "P21B_004": 7824.0, "検査ID": 776.0, "name": "西部配水場", "edition": "2010 (2012 publication)", "kind": "water-plants", "sourceUrl": "https://nlftp.mlit.go.jp/ksj/gml/datalist/KsjTmplt-P21.html"}, "geometry": {"type": "Point", "coordinates": [134.9155077, 34.74683172]}}, {"type": "Feature", "id": "water-plants-218", "properties": {"P21B_001": "稲美町", "P21B_002": "稲美町上水道事業", "P21B_003": "南部配水場", "P21B_004": 859.0, "検査ID": 777.0, "name": "南部配水場", "edition": "2010 (2012 publication)", "kind": "water-plants", "sourceUrl": "https://nlftp.mlit.go.jp/ksj/gml/datalist/KsjTmplt-P21.html"}, "geometry": {"type": "Point", "coordinates": [134.9529063, 34.73946607]}}, {"type": "Feature", "id": "water-plants-219", "properties": {"P21B_001": "明石市", "P21B_002": "明石市上水道事業", "P21B_003": "鳥羽浄水場", "P21B_004": 32400.0, "検査ID": 778.0, "name": "鳥羽浄水場", "edition": "2010 (2012 publication)", "kind": "water-plants", "sourceUrl": "https://nlftp.mlit.go.jp/ksj/gml/datalist/KsjTmplt-P21.html"}, "geometry": {"type": "Point", "coordinates": [134.965053, 34.67642577]}}, {"type": "Feature", "id": "water-plants-220", "properties": {"P21B_001": "明石市", "P21B_002": "明石市上水道事業", "P21B_003": "魚住浄水場", "P21B_004": 20900.0, "検査ID": 780.0, "name": "魚住浄水場", "edition": "2010 (2012 publication)", "kind": "water-plants", "sourceUrl": "https://nlftp.mlit.go.jp/ksj/gml/datalist/KsjTmplt-P21.html"}, "geometry": {"type": "Point", "coordinates": [134.8984326, 34.70921066]}}, {"type": "Feature", "id": "water-plants-281", "properties": {"P21B_001": "淡路広域水道企業団", "P21B_002": "淡路広域水道企業団上水道事業", "P21B_003": "開京浄水場", "P21B_004": 950.0, "検査ID": 932.0, "name": "開京浄水場", "edition": "2010 (2012 publication)", "kind": "water-plants", "sourceUrl": "https://nlftp.mlit.go.jp/ksj/gml/datalist/KsjTmplt-P21.html"}, "geometry": {"type": "Point", "coordinates": [134.995258, 34.57434909]}}, {"type": "Feature", "id": "water-plants-282", "properties": {"P21B_001": "市営", "P21B_002": "野島簡易水道事業", "P21B_003": "野島浄水場", "P21B_004": 940.0, "検査ID": 933.0, "name": "野島浄水場", "edition": "2010 (2012 publication)", "kind": "water-plants", "sourceUrl": "https://nlftp.mlit.go.jp/ksj/gml/datalist/KsjTmplt-P21.html"}, "geometry": {"type": "Point", "coordinates": [134.9726526, 34.56218157]}}, {"type": "Feature", "id": "water-plants-283", "properties": {"P21B_001": "淡路広域水道企業団", "P21B_002": "淡路広域水道企業団上水道事業", "P21B_003": "久留麻浄水場", "P21B_004": 1530.0, "検査ID": 941.0, "name": "久留麻浄水場", "edition": "2010 (2012 publication)", "kind": "water-plants", "sourceUrl": "https://nlftp.mlit.go.jp/ksj/gml/datalist/KsjTmplt-P21.html"}, "geometry": {"type": "Point", "coordinates": [134.974401, 34.52903106]}}, {"type": "Feature", "id": "water-plants-284", "properties": {"P21B_001": "淡路広域水道企業団", "P21B_002": "淡路広域水道企業団上水道事業", "P21B_003": "月の山浄水場", "P21B_004": 510.0, "検査ID": 942.0, "name": "月の山浄水場", "edition": "2010 (2012 publication)", "kind": "water-plants", "sourceUrl": "https://nlftp.mlit.go.jp/ksj/gml/datalist/KsjTmplt-P21.html"}, "geometry": {"type": "Point", "coordinates": [134.9651436, 34.50457411]}}, {"type": "Feature", "id": "water-plants-285", "properties": {"P21B_001": "市営", "P21B_002": "仁井簡易水道事業", "P21B_003": "河内浄水場", "P21B_004": 1000.0, "検査ID": 945.0, "name": "河内浄水場", "edition": "2010 (2012 publication)", "kind": "water-plants", "sourceUrl": "https://nlftp.mlit.go.jp/ksj/gml/datalist/KsjTmplt-P21.html"}, "geometry": {"type": "Point", "coordinates": [134.9614886, 34.52357435]}}, {"type": "Feature", "id": "water-plants-286", "properties": {"P21B_001": "淡路広域水道企業団", "P21B_002": "淡路広域水道企業団上水道事業", "P21B_003": "室津浄水場", "P21B_004": 3400.0, "検査ID": 948.0, "name": "室津浄水場", "edition": "2010 (2012 publication)", "kind": "water-plants", "sourceUrl": "https://nlftp.mlit.go.jp/ksj/gml/datalist/KsjTmplt-P21.html"}, "geometry": {"type": "Point", "coordinates": [134.8811647, 34.51968955]}}, {"type": "Feature", "id": "water-plants-287", "properties": {"P21B_001": "市営", "P21B_002": "西部簡易水道事業", "P21B_003": "薬師園浄水場", "P21B_004": 1100.0, "検査ID": 956.0, "name": "薬師園浄水場", "edition": "2010 (2012 publication)", "kind": "water-plants", "sourceUrl": "https://nlftp.mlit.go.jp/ksj/gml/datalist/KsjTmplt-P21.html"}, "geometry": {"type": "Point", "coordinates": [134.8964535, 34.51571877]}}, {"type": "Feature", "id": "water-plants-288", "properties": {"P21B_001": "市営", "P21B_002": "西部簡易水道事業", "P21B_003": "第一浄水場", "P21B_004": 50.0, "検査ID": 957.0, "name": "第一浄水場", "edition": "2010 (2012 publication)", "kind": "water-plants", "sourceUrl": "https://nlftp.mlit.go.jp/ksj/gml/datalist/KsjTmplt-P21.html"}, "geometry": {"type": "Point", "coordinates": [134.9038794, 34.50976882]}}, {"type": "Feature", "id": "water-plants-289", "properties": {"P21B_001": "市営", "P21B_002": "西部簡易水道事業", "P21B_003": "末切浄水場", "P21B_004": 434.0, "検査ID": 958.0, "name": "末切浄水場", "edition": "2010 (2012 publication)", "kind": "water-plants", "sourceUrl": "https://nlftp.mlit.go.jp/ksj/gml/datalist/KsjTmplt-P21.html"}, "geometry": {"type": "Point", "coordinates": [134.9088054, 34.52064033]}}, {"type": "Feature", "id": "water-plants-290", "properties": {"P21B_001": "明石市", "P21B_002": "明石市上水道事業", "P21B_003": "明石川浄水場", "P21B_004": 28700.0, "検査ID": 959.0, "name": "明石川浄水場", "edition": "2010 (2012 publication)", "kind": "water-plants", "sourceUrl": "https://nlftp.mlit.go.jp/ksj/gml/datalist/KsjTmplt-P21.html"}, "geometry": {"type": "Point", "coordinates": [134.977874, 34.6574385]}}, {"type": "Feature", "id": "water-plants-292", "properties": {"P21B_001": "淡路広域水道企業団", "P21B_002": "淡路広域水道企業団上水道事業", "P21B_003": "向谷浄水場", "P21B_004": 200.0, "検査ID": 980.0, "name": "向谷浄水場", "edition": "2010 (2012 publication)", "kind": "water-plants", "sourceUrl": "https://nlftp.mlit.go.jp/ksj/gml/datalist/KsjTmplt-P21.html"}, "geometry": {"type": "Point", "coordinates": [134.8163628, 34.45094871]}}, {"type": "Feature", "id": "water-plants-293", "properties": {"P21B_001": "淡路広域水道企業団", "P21B_002": "淡路広域水道企業団上水道事業", "P21B_003": "下河合浄水場", "P21B_004": 800.0, "検査ID": 984.0, "name": "下河合浄水場", "edition": "2010 (2012 publication)", "kind": "water-plants", "sourceUrl": "https://nlftp.mlit.go.jp/ksj/gml/datalist/KsjTmplt-P21.html"}, "geometry": {"type": "Point", "coordinates": [134.8621963, 34.46545631]}}, {"type": "Feature", "id": "water-plants-294", "properties": {"P21B_001": "淡路広域水道企業団", "P21B_002": "淡路広域水道企業団上水道事業", "P21B_003": "遠田浄水場", "P21B_004": 0.0, "検査ID": 987.0, "name": "遠田浄水場", "edition": "2010 (2012 publication)", "kind": "water-plants", "sourceUrl": "https://nlftp.mlit.go.jp/ksj/gml/datalist/KsjTmplt-P21.html"}, "geometry": {"type": "Point", "coordinates": [134.8774359, 34.46835375]}}, {"type": "Feature", "id": "water-plants-296", "properties": {"P21B_001": "淡路広域水道企業団", "P21B_002": "淡路広域水道企業団上水道事業", "P21B_003": "西山浄水場", "P21B_004": 0.0, "検査ID": 999.0, "name": "西山浄水場", "edition": "2010 (2012 publication)", "kind": "water-plants", "sourceUrl": "https://nlftp.mlit.go.jp/ksj/gml/datalist/KsjTmplt-P21.html"}, "geometry": {"type": "Point", "coordinates": [134.9001534, 34.45314797]}}, {"type": "Feature", "id": "water-plants-297", "properties": {"P21B_001": "淡路広域水道企業団", "P21B_002": "淡路広域水道企業団上水道事業", "P21B_003": "佐野浄水場", "P21B_004": 1470.0, "検査ID": 1000.0, "name": "佐野浄水場", "edition": "2010 (2012 publication)", "kind": "water-plants", "sourceUrl": "https://nlftp.mlit.go.jp/ksj/gml/datalist/KsjTmplt-P21.html"}, "geometry": {"type": "Point", "coordinates": [134.9371165, 34.46492821]}}, {"type": "Feature", "id": "water-plants-298", "properties": {"P21B_001": "淡路広域水道企業団", "P21B_002": "淡路広域水道企業団上水道事業", "P21B_003": "園出浄水場", "P21B_004": 300.0, "検査ID": 1002.0, "name": "園出浄水場", "edition": "2010 (2012 publication)", "kind": "water-plants", "sourceUrl": "https://nlftp.mlit.go.jp/ksj/gml/datalist/KsjTmplt-P21.html"}, "geometry": {"type": "Point", "coordinates": [134.8674229, 34.48656582]}}, {"type": "Feature", "id": "water-plants-301", "properties": {"P21B_001": "淡路広域水道企業団", "P21B_002": "淡路広域水道企業団上水道事業", "P21B_003": "尾崎浄水場", "P21B_004": 900.0, "検査ID": 1009.0, "name": "尾崎浄水場", "edition": "2010 (2012 publication)", "kind": "water-plants", "sourceUrl": "https://nlftp.mlit.go.jp/ksj/gml/datalist/KsjTmplt-P21.html"}, "geometry": {"type": "Point", "coordinates": [134.8700564, 34.49686444]}}, {"type": "Feature", "id": "water-plants-304", "properties": {"P21B_001": "淡路広域水道企業団", "P21B_002": "淡路広域水道企業団上水道事業", "P21B_003": "郡家川浄水場", "P21B_004": 3300.0, "検査ID": 1012.0, "name": "郡家川浄水場", "edition": "2010 (2012 publication)", "kind": "water-plants", "sourceUrl": "https://nlftp.mlit.go.jp/ksj/gml/datalist/KsjTmplt-P21.html"}, "geometry": {"type": "Point", "coordinates": [134.8497424, 34.46888098]}}, {"type": "Feature", "id": "water-plants-305", "properties": {"P21B_001": "淡路広域水道企業団", "P21B_002": "淡路広域水道企業団上水道事業", "P21B_003": "小井浄水場", "P21B_004": 30.3, "検査ID": 1014.0, "name": "小井浄水場", "edition": "2010 (2012 publication)", "kind": "water-plants", "sourceUrl": "https://nlftp.mlit.go.jp/ksj/gml/datalist/KsjTmplt-P21.html"}, "geometry": {"type": "Point", "coordinates": [134.950876, 34.48089701]}}]}